{
  "type": "FeatureCollection",
  "features": [
    {
      "geometry": {
        "type": "Point",
        "coordinates": [
          32,
          49
        ]
      },
      "type": "Feature",
      "properties": {
        "name:en": "Ukraine",
        "name:nl": "Oekraine",
        "name:xx": "Ukrainskaya",
        "hierarchy": [
          "tgn:7006660",
          "tgn:1000003",
          "tgn:7029392"
        ],
        "name:ar": "أوهراه اَ",
        "placetype": [
          "aat:300387054",
          "aat:300179493",
          "aat:300128207"
        ],
        "name:fr": "Ukraine",
        "name:uk": "Украïна",
        "name:zh": "乌克兰",
        "id": 7006660,
        "name:es": "Ucrania"
      }
    },
    {
      "geometry": {
        "type": "Point",
        "coordinates": [
          64,
          41
        ]
      },
      "type": "Feature",
      "properties": {
        "name:en": "Uzbekistan",
        "name:uz": "O'zbekiston",
        "hierarchy": [
          "tgn:7006661",
          "tgn:1000004",
          "tgn:7029392"
        ],
        "name:ar": "أوزبىس خان",
        "placetype": [
          "aat:300387054",
          "aat:300179493",
          "aat:300128207"
        ],
        "name:fr": "Ouzbékistan",
        "name:ru": "Узбекистан",
        "name:zh": "乌兹别克斯坦",
        "id": 7006661,
        "name:es": "Uzbekistán"
      }
    },
    {
      "geometry": {
        "type": "Point",
        "coordinates": [
          -76.84,
          17.937
        ]
      },
      "type": "Feature",
      "properties": {
        "hierarchy": [
          "tgn:7006662",
          "tgn:7018589",
          "tgn:7005559",
          "tgn:1000001",
          "tgn:7005556",
          "tgn:7029392"
        ],
        "placetype": [
          "aat:300008347",
          "aat:300008375"
        ],
        "id": 7006662,
        "name:xx": "Port Royal"
      }
    },
    {
      "geometry": {
        "type": "Point",
        "coordinates": [
          15.5,
          45.1667
        ]
      },
      "type": "Feature",
      "properties": {
        "name:pt": "Croácia",
        "name:en": "Croatia",
        "name:nl": "Kroatië",
        "hierarchy": [
          "tgn:7006663",
          "tgn:1000003",
          "tgn:7029392"
        ],
        "name:hr": "Hrvatska",
        "name:ar": "هرواث اَ",
        "name:de": "Kroatien",
        "placetype": [
          "aat:300387054",
          "aat:300179493",
          "aat:300128207",
          "aat:300387174",
          "aat:300235096"
        ],
        "name:fr": "Croatie",
        "name:ru": "Хорватия",
        "name:zh": "克罗地亚",
        "id": 7006663,
        "name:es": "Croacia"
      }
    },
    {
      "geometry": {
        "type": "Point",
        "coordinates": [
          17.8333,
          44.25
        ]
      },
      "type": "Feature",
      "properties": {
        "name:sr": "Босна и Херцеговина",
        "name:en": "Bosnia and Herzegovina",
        "name:xx": "Bosna i Hercegovina",
        "name:sh": "Bosna i Hercegovina",
        "hierarchy": [
          "tgn:7006664",
          "tgn:1000003",
          "tgn:7029392"
        ],
        "name:zh": "波斯尼亚和黑塞哥维那",
        "name:ar": "ا بًوس ية وا هرسم",
        "name:de": "Bosnien und Herzegowina",
        "placetype": [
          "aat:300387054",
          "aat:300179493",
          "aat:300128207",
          "aat:300387174"
        ],
        "name:fr": "Bosnie-Herzégovine",
        "name:it": "Bósnia e Herzegovina",
        "name:ru": "Босния и Герцеговина",
        "name:bs": "Bosna i Hercegovina",
        "name:hr": "Bosna i Hercegovina",
        "id": 7006664,
        "name:es": "Bosnia y Herzegovina"
      }
    },
    {
      "geometry": {
        "type": "Point",
        "coordinates": [
          17.8333,
          43
        ]
      },
      "type": "Feature",
      "properties": {
        "hierarchy": [
          "tgn:7006665",
          "tgn:1000003",
          "tgn:7006664",
          "tgn:7029392"
        ],
        "placetype": [
          "aat:300387346"
        ],
        "name:en": "Hercegovina",
        "id": 7006665
      }
    },
    {
      "geometry": {
        "type": "Point",
        "coordinates": [
          18,
          44
        ]
      },
      "type": "Feature",
      "properties": {
        "hierarchy": [
          "tgn:7006666",
          "tgn:1000003",
          "tgn:7006664",
          "tgn:7029392"
        ],
        "placetype": [
          "aat:300387346"
        ],
        "id": 7006666,
        "name:xx": "Bosna"
      }
    },
    {
      "geometry": {
        "type": "Point",
        "coordinates": [
          22,
          41.8333
        ]
      },
      "type": "Feature",
      "properties": {
        "name:en": "The former Yugoslav Republic of Macedonia",
        "name:nl": "Macedonië",
        "name:xx": "Republika Makedonija",
        "hierarchy": [
          "tgn:7006667",
          "tgn:1000003",
          "tgn:7029392"
        ],
        "name:ar": "جُهور ةً ملدوه اَ ا وًَغوسلاف ةِ اسًابلة",
        "placetype": [
          "aat:300387054",
          "aat:300179493",
          "aat:300128207"
        ],
        "name:fr": "L'ex-République yougoslave de Macédoine",
        "name:ru": "бывшая югославская Республика Македония",
        "name:zh": "前南斯拉夫的马其顿共和国",
        "id": 7006667,
        "name:es": "La ex República Yugoslava de Macedonia"
      }
    },
    {
      "geometry": {
        "type": "Point",
        "coordinates": [
          21,
          44
        ]
      },
      "type": "Feature",
      "properties": {
        "name:en": "Serbia",
        "name:xx": "Srbija",
        "hierarchy": [
          "tgn:7006669",
          "tgn:1000003",
          "tgn:7029392"
        ],
        "name:ar": "صرب اَ",
        "name:sr": "Србија",
        "placetype": [
          "aat:300387054",
          "aat:300387064",
          "aat:300179493",
          "aat:300128207"
        ],
        "name:fr": "Serbie",
        "name:ru": "Сербия",
        "name:zh": "塞尔维亚",
        "id": 7006669
      }
    }
  ]
}
