{
  "type": "FeatureCollection",
  "features": [
    {
      "geometry": {
        "type": "Point",
        "coordinates": [
          138,
          36
        ]
      },
      "type": "Feature",
      "properties": {
        "name:en": "Japón",
        "name:xx": "Japan",
        "hierarchy": [
          "tgn:1000120",
          "tgn:1000004",
          "tgn:7029392"
        ],
        "name:ar": "ا اًَبان",
        "placetype": [
          "aat:300387054",
          "aat:300387062",
          "aat:300128214",
          "aat:300128207",
          "aat:300387174",
          "aat:300387189"
        ],
        "name:fr": "Nihon",
        "name:jp": "日本",
        "name:ru": "Япония",
        "id": 1000120,
        "name:es": "Japon"
      }
    },
    {
      "geometry": {
        "type": "Point",
        "coordinates": [
          36,
          31
        ]
      },
      "type": "Feature",
      "properties": {
        "name:pt": "Jordânia",
        "name:en": "Jordaan",
        "name:nl": "Jordanien",
        "name:xx": "Al Urdun",
        "hierarchy": [
          "tgn:1000121",
          "tgn:1000004",
          "tgn:7029392"
        ],
        "name:ar": "الأردن",
        "name:de": "Jordania",
        "placetype": [
          "aat:300387054",
          "aat:300128207",
          "aat:300387174",
          "aat:300235117",
          "aat:300235096",
          "aat:300135982"
        ],
        "name:fr": "Jordan",
        "name:it": "Giordano",
        "name:ru": "Иордания",
        "name:zh": "约旦",
        "id": 1000121,
        "name:es": "Jordanie"
      }
    },
    {
      "geometry": {
        "type": "Point",
        "coordinates": [
          127,
          40
        ]
      },
      "type": "Feature",
      "properties": {
        "name:pt": "Coréia do Norte",
        "name:en": "North Korea",
        "name:nl": "Noord Korea",
        "name:xx": "Chosŏn",
        "hierarchy": [
          "tgn:1000122",
          "tgn:1000004",
          "tgn:7029392"
        ],
        "name:ar": "جُهور ةً هوريا اضًعب ةَ الدّيملراط ةَ",
        "name:de": "Nordkorea",
        "placetype": [
          "aat:300387054",
          "aat:300179493",
          "aat:300128207",
          "aat:300387174",
          "aat:300387136"
        ],
        "name:ko": "조선",
        "name:fr": "République populaire démocratique de Corée",
        "name:ru": "Корейская Народно-Демократическая Республика",
        "name:zh": "朝鲜民主主义人民共和国",
        "id": 1000122,
        "name:es": "República Popular Democrática de Corea"
      }
    },
    {
      "geometry": {
        "type": "Point",
        "coordinates": [
          47.75,
          29.5
        ]
      },
      "type": "Feature",
      "properties": {
        "name:en": "Kuwait",
        "name:nl": "Koeweit",
        "name:xx": "Al Kuwayt",
        "hierarchy": [
          "tgn:1000124",
          "tgn:1000004",
          "tgn:7029392"
        ],
        "name:ar": "ا ىًوتً",
        "placetype": [
          "aat:300387054",
          "aat:300128207",
          "aat:300387174"
        ],
        "name:fr": "Koweït",
        "name:ru": "Кувейт",
        "name:zh": "科威特",
        "id": 1000124,
        "name:es": "Kuwait"
      }
    },
    {
      "geometry": {
        "type": "Point",
        "coordinates": [
          105,
          18
        ]
      },
      "type": "Feature",
      "properties": {
        "name:en": "Laos",
        "name:xx": "Sathalanalat Paxathipatai Paxaxôn Lao",
        "hierarchy": [
          "tgn:1000125",
          "tgn:1000004",
          "tgn:7029392"
        ],
        "name:ar": "جُهور ةً لاو الدّيملراط ةَ اضًعب ةَ",
        "placetype": [
          "aat:300387054",
          "aat:300179493",
          "aat:300128207",
          "aat:300387174",
          "aat:300387136",
          "aat:300235119",
          "aat:300235096"
        ],
        "name:fr": "République démocratique populaire lao",
        "name:ru": "Лаосская Народно-Демократическая Республика",
        "name:zh": "老挝人民民主共和国",
        "id": 1000125,
        "name:es": "República Democrática Popular Lao"
      }
    },
    {
      "geometry": {
        "type": "Point",
        "coordinates": [
          35.8333,
          33.8333
        ]
      },
      "type": "Feature",
      "properties": {
        "name:en": "Lebanon",
        "name:xx": "Lubnān",
        "hierarchy": [
          "tgn:1000126",
          "tgn:1000004",
          "tgn:7029392"
        ],
        "name:ar": "بًيان",
        "name:de": "Libanon",
        "placetype": [
          "aat:300387054",
          "aat:300179493",
          "aat:300128207",
          "aat:300387174",
          "aat:300387136"
        ],
        "name:fr": "Liban",
        "name:it": "Libano",
        "name:ru": "Ливан",
        "name:zh": "黎巴嫩",
        "id": 1000126,
        "name:es": "Líbano"
      }
    },
    {
      "geometry": {
        "type": "Point",
        "coordinates": [
          112.5,
          2.5
        ]
      },
      "type": "Feature",
      "properties": {
        "name:en": "Malaysia",
        "name:ms": "Malaysia",
        "hierarchy": [
          "tgn:1000128",
          "tgn:1000004",
          "tgn:7029392"
        ],
        "name:ar": "مايًزيا",
        "placetype": [
          "aat:300387054",
          "aat:300019275",
          "aat:300128207",
          "aat:300387174",
          "aat:300232424"
        ],
        "name:fr": "Malaisie",
        "name:ru": "Малайзия",
        "name:zh": "马来西亚",
        "id": 1000128,
        "name:es": "Malasia"
      }
    }
  ]
}
