{
  "type": "FeatureCollection",
  "features": [
    {
      "geometry": {
        "type": "Point",
        "coordinates": [
          23,
          -31
        ]
      },
      "type": "Feature",
      "properties": {
        "hierarchy": [
          "tgn:7016540",
          "tgn:7001242",
          "tgn:1000193",
          "tgn:7029392"
        ],
        "placetype": [
          "aat:300387179",
          "aat:300387346",
          "aat:300000774"
        ],
        "id": 7016540,
        "name:xx": "Cape of Good Hope"
      }
    },
    {
      "geometry": {
        "type": "Point",
        "coordinates": [
          127.4333,
          36.3333
        ]
      },
      "type": "Feature",
      "properties": {
        "hierarchy": [
          "tgn:7016542",
          "tgn:1000004",
          "tgn:7000299",
          "tgn:7029392"
        ],
        "placetype": [
          "aat:300387064",
          "aat:300387067"
        ],
        "id": 7016542,
        "name:xx": "Taej≈èn"
      }
    },
    {
      "geometry": {
        "type": "Point",
        "coordinates": [
          35.704722,
          31.184722
        ]
      },
      "type": "Feature",
      "properties": {
        "hierarchy": [
          "tgn:7016543",
          "tgn:1002058",
          "tgn:1000004",
          "tgn:1000121",
          "tgn:7029392"
        ],
        "placetype": [
          "aat:300008347",
          "aat:300387238",
          "aat:300387220",
          "aat:300008375"
        ],
        "id": 7016543,
        "name:xx": "Al Karak"
      }
    },
    {
      "geometry": {
        "type": "Point",
        "coordinates": [
          7.25,
          50.1667
        ]
      },
      "type": "Feature",
      "properties": {
        "name:en": "Mosel",
        "hierarchy": [
          "tgn:7016544",
          "tgn:1000003",
          "tgn:7029392"
        ],
        "name:de": "Mosel",
        "placetype": [
          "aat:300008707"
        ],
        "name:fr": "Moselle",
        "name:la": "Mosella",
        "name:it": "Mosella",
        "id": 7016544,
        "name:es": "Mosela"
      }
    },
    {
      "geometry": {
        "type": "Point",
        "coordinates": [
          20.25,
          45.25
        ]
      },
      "type": "Feature",
      "properties": {
        "name:ro": "Tisa",
        "name:xx": "Tisza",
        "hierarchy": [
          "tgn:7016547",
          "tgn:1000003",
          "tgn:7029392"
        ],
        "name:de": "Theiss",
        "placetype": [
          "aat:300008707"
        ],
        "name:en": "Tisza River",
        "id": 7016547
      }
    },
    {
      "geometry": {
        "type": "Point",
        "coordinates": [
          9,
          53.8333
        ]
      },
      "type": "Feature",
      "properties": {
        "name:en": "Elbe",
        "hierarchy": [
          "tgn:7016548",
          "tgn:1000003",
          "tgn:7029392"
        ],
        "name:de": "Elbe",
        "placetype": [
          "aat:300008707"
        ],
        "name:la": "Albis",
        "id": 7016548
      }
    }
  ]
}
