{
  "type": "FeatureCollection",
  "features": [
    {
      "geometry": {
        "type": "Point",
        "coordinates": [
          35,
          -18.25
        ]
      },
      "type": "Feature",
      "properties": {
        "name:pt": "Mozambique",
        "name:en": "Mozambique",
        "hierarchy": [
          "tgn:1000180",
          "tgn:7001242",
          "tgn:7029392"
        ],
        "name:ar": "موزامب قَ",
        "placetype": [
          "aat:300387054",
          "aat:300179493",
          "aat:300128207",
          "aat:300387174",
          "aat:300387136",
          "aat:300000774"
        ],
        "name:fr": "Mozambique",
        "name:ru": "Мозамбик",
        "name:zh": "莫桑比克",
        "id": 1000180,
        "name:es": "Moçambique"
      }
    },
    {
      "geometry": {
        "type": "Point",
        "coordinates": [
          8,
          16
        ]
      },
      "type": "Feature",
      "properties": {
        "name:en": "Niger",
        "hierarchy": [
          "tgn:1000181",
          "tgn:7001242",
          "tgn:7029392"
        ],
        "name:ar": "ا يًجَر",
        "placetype": [
          "aat:300387054",
          "aat:300179493",
          "aat:300128207",
          "aat:300387174",
          "aat:300387136",
          "aat:300135982"
        ],
        "name:fr": "Niger",
        "name:ru": "Нигер",
        "name:zh": "尼日尔",
        "id": 1000181
      }
    },
    {
      "geometry": {
        "type": "Point",
        "coordinates": [
          8,
          10
        ]
      },
      "type": "Feature",
      "properties": {
        "name:en": "Nigeria",
        "hierarchy": [
          "tgn:1000182",
          "tgn:7001242",
          "tgn:7029392"
        ],
        "name:ar": "ه جَيريا",
        "placetype": [
          "aat:300387054",
          "aat:300179493",
          "aat:300128207",
          "aat:300387174",
          "aat:300387136"
        ],
        "name:fr": "Nigéria",
        "name:ru": "Нигерия",
        "name:zh": "尼日利亚",
        "id": 1000182,
        "name:es": "Nigeria"
      }
    },
    {
      "geometry": {
        "type": "Point",
        "coordinates": [
          -15,
          12
        ]
      },
      "type": "Feature",
      "properties": {
        "name:pt": "Guinea-Bissau",
        "name:en": "Guinea-Bissau",
        "hierarchy": [
          "tgn:1000183",
          "tgn:7001242",
          "tgn:7029392"
        ],
        "name:ar": "غ اًَِ - ب سُاو",
        "placetype": [
          "aat:300387054",
          "aat:300128207",
          "aat:300387174",
          "aat:300387136"
        ],
        "name:fr": "Guinée-Bissau",
        "name:ru": "Гвинея-Бисау",
        "name:zh": "几内亚比绍",
        "id": 1000183,
        "name:es": "Guiné-Bissau"
      }
    },
    {
      "geometry": {
        "type": "Point",
        "coordinates": [
          55.6,
          -21.1
        ]
      },
      "type": "Feature",
      "properties": {
        "hierarchy": [
          "tgn:1000184",
          "tgn:7001242",
          "tgn:7029392"
        ],
        "placetype": [
          "aat:300387054",
          "aat:300387176",
          "aat:300387318",
          "aat:300387121",
          "aat:300387136"
        ],
        "name:en": "Reunion",
        "id": 1000184
      }
    },
    {
      "geometry": {
        "type": "Point",
        "coordinates": [
          29,
          -19
        ]
      },
      "type": "Feature",
      "properties": {
        "name:en": "Zimbabwe",
        "hierarchy": [
          "tgn:1000185",
          "tgn:7001242",
          "tgn:7029392"
        ],
        "name:ar": "زمبابوي",
        "placetype": [
          "aat:300387054",
          "aat:300235115",
          "aat:300179493",
          "aat:300128207",
          "aat:300387174",
          "aat:300387136"
        ],
        "name:fr": "Zimbabwe",
        "name:ru": "Зимбабве",
        "name:zh": "津巴布韦",
        "id": 1000185,
        "name:es": "Zimbabwe"
      }
    },
    {
      "geometry": {
        "type": "Point",
        "coordinates": [
          7,
          1
        ]
      },
      "type": "Feature",
      "properties": {
        "name:pt": "Sao Tome and Principe",
        "name:en": "São Tomé e Príncipe",
        "hierarchy": [
          "tgn:1000188",
          "tgn:7001242",
          "tgn:7029392"
        ],
        "name:ar": "سان ثومي وبرً سً بُي",
        "placetype": [
          "aat:300387054",
          "aat:300179493",
          "aat:300128207",
          "aat:300387174",
          "aat:300000774"
        ],
        "name:fr": "Sao Tomé-et-Principe",
        "name:ru": "Сан-Томе и Принсипи",
        "name:zh": "圣多美和普林西比",
        "id": 1000188,
        "name:es": "Santo Tomé y Príncipe"
      }
    },
    {
      "geometry": {
        "type": "Point",
        "coordinates": [
          -14,
          14
        ]
      },
      "type": "Feature",
      "properties": {
        "name:en": "Senegal",
        "hierarchy": [
          "tgn:1000189",
          "tgn:7001242",
          "tgn:7029392"
        ],
        "name:ar": "اسً يغال",
        "placetype": [
          "aat:300387054",
          "aat:300235115",
          "aat:300179493",
          "aat:300128207",
          "aat:300387174",
          "aat:300235118",
          "aat:300387136",
          "aat:300235119",
          "aat:300135982"
        ],
        "name:fr": "Sénégal",
        "name:ru": "Сенегал",
        "name:zh": "塞内加尔",
        "id": 1000189,
        "name:es": "Senegal"
      }
    }
  ]
}
