{
  "type": "FeatureCollection",
  "features": [
    {
      "geometry": {
        "type": "Point",
        "coordinates": [
          11.25,
          48.383333
        ]
      },
      "type": "Feature",
      "properties": {
        "hierarchy": [
          "tgn:7004621",
          "tgn:7003669",
          "tgn:1000003",
          "tgn:7000084",
          "tgn:7029392"
        ],
        "placetype": [
          "aat:300008347"
        ],
        "id": 7004621,
        "name:xx": "Altomünster"
      }
    },
    {
      "geometry": {
        "type": "Point",
        "coordinates": [
          15.183333,
          40.25
        ]
      },
      "type": "Feature",
      "properties": {
        "hierarchy": [
          "tgn:7004622",
          "tgn:7003005",
          "tgn:7003014",
          "tgn:1000003",
          "tgn:1000080",
          "tgn:7029392"
        ],
        "placetype": [
          "aat:300008347",
          "aat:300008375"
        ],
        "id": 7004622,
        "name:xx": "Salento"
      }
    },
    {
      "geometry": {
        "type": "Point",
        "coordinates": [
          -80.6667,
          19.5
        ]
      },
      "type": "Feature",
      "properties": {
        "name:pt": "Cayman, Ilhas",
        "name:en": "Cayman Islands",
        "name:nl": "Caymaneilanden",
        "hierarchy": [
          "tgn:7004623",
          "tgn:1000001",
          "tgn:7029392"
        ],
        "name:de": "Caiman-Inseln",
        "placetype": [
          "aat:300387054",
          "aat:300235115",
          "aat:300387176"
        ],
        "name:fr": "Îles Caïman",
        "id": 7004623,
        "name:es": "Islas Caimán"
      }
    },
    {
      "geometry": {
        "type": "Point",
        "coordinates": [
          -80,
          21.5
        ]
      },
      "type": "Feature",
      "properties": {
        "name:en": "Cuba",
        "hierarchy": [
          "tgn:7004624",
          "tgn:1000001",
          "tgn:7029392"
        ],
        "name:ar": "هوبا",
        "name:de": "Kuba",
        "placetype": [
          "aat:300387054",
          "aat:300387062",
          "aat:300179493",
          "aat:300128207",
          "aat:300387174"
        ],
        "name:fr": "Cuba",
        "name:ru": "Куба",
        "name:zh": "古巴",
        "id": 7004624,
        "name:es": "Cuba"
      }
    },
    {
      "geometry": {
        "type": "Point",
        "coordinates": [
          -72,
          19
        ]
      },
      "type": "Feature",
      "properties": {
        "hierarchy": [
          "tgn:7004625",
          "tgn:1000001",
          "tgn:1010020",
          "tgn:7029392"
        ],
        "placetype": [
          "aat:300008791"
        ],
        "id": 7004625,
        "name:xx": "Hispaniola"
      }
    },
    {
      "geometry": {
        "type": "Point",
        "coordinates": [
          14.466667,
          40.783333
        ]
      },
      "type": "Feature",
      "properties": {
        "hierarchy": [
          "tgn:7004627",
          "tgn:7003013",
          "tgn:7003005",
          "tgn:1000003",
          "tgn:1000080",
          "tgn:7029392"
        ],
        "placetype": [
          "aat:300008347",
          "aat:300000810",
          "aat:300008375"
        ],
        "id": 7004627,
        "name:xx": "Boscoreale"
      }
    }
  ]
}
