{
  "type": "FeatureCollection",
  "features": [
    {
      "geometry": {
        "type": "Point",
        "coordinates": [
          30,
          -3.5
        ]
      },
      "type": "Feature",
      "properties": {
        "name:rn": "Burundi",
        "name:en": "Burundi",
        "name:nl": "Boeroendi",
        "hierarchy": [
          "tgn:7001630",
          "tgn:7001242",
          "tgn:7029392"
        ],
        "name:ar": "بوروهدي",
        "name:de": "Burundi",
        "placetype": [
          "aat:300387054",
          "aat:300179493",
          "aat:300128207",
          "aat:300387174",
          "aat:300235096"
        ],
        "name:fr": "Burundi",
        "name:ru": "Бурунди",
        "name:zh": "布隆迪",
        "id": 7001630,
        "name:es": "Burundi"
      }
    },
    {
      "geometry": {
        "type": "Point",
        "coordinates": [
          -24,
          16
        ]
      },
      "type": "Feature",
      "properties": {
        "name:pt": "Cape Verde",
        "name:en": "Cabo Verde",
        "name:nl": "Kaapverdische Eilanden",
        "hierarchy": [
          "tgn:7001632",
          "tgn:7001242",
          "tgn:7029392"
        ],
        "name:ar": "ا رًأس الأخضر",
        "name:cs": "Kapverdy",
        "name:de": "Kap Verde",
        "placetype": [
          "aat:300387054",
          "aat:300387062",
          "aat:300179493",
          "aat:300128207",
          "aat:300387174",
          "aat:300000774"
        ],
        "name:fr": "Cap-Vert",
        "name:it": "Capo Verde",
        "name:ru": "Кабо-Верде",
        "name:sv": "Kap Verde",
        "name:zh": "佛得角",
        "id": 7001632,
        "name:es": "Cabo Verde"
      }
    },
    {
      "geometry": {
        "type": "Point",
        "coordinates": [
          -24.3333,
          16.5833
        ]
      },
      "type": "Feature",
      "properties": {
        "hierarchy": [
          "tgn:7001634",
          "tgn:7001242",
          "tgn:7001632",
          "tgn:7029392"
        ],
        "placetype": [
          "aat:300387064",
          "aat:300386853",
          "aat:300387081"
        ],
        "id": 7001634,
        "name:xx": "Barlavento"
      }
    },
    {
      "geometry": {
        "type": "Point",
        "coordinates": [
          -23.5833,
          15
        ]
      },
      "type": "Feature",
      "properties": {
        "hierarchy": [
          "tgn:7001635",
          "tgn:7001242",
          "tgn:7001632",
          "tgn:7029392"
        ],
        "placetype": [
          "aat:300387064",
          "aat:300386853",
          "aat:300387081"
        ],
        "id": 7001635,
        "name:xx": "Sotavento"
      }
    },
    {
      "geometry": {
        "type": "Point",
        "coordinates": [
          27,
          -32.8333
        ]
      },
      "type": "Feature",
      "properties": {
        "hierarchy": [
          "tgn:7001637",
          "tgn:7001242",
          "tgn:1000193",
          "tgn:7029392"
        ],
        "placetype": [
          "aat:300387179",
          "aat:300387130",
          "aat:300387346"
        ],
        "name:en": "Ciskei",
        "id": 7001637
      }
    }
  ]
}
