{
  "type": "FeatureCollection",
  "features": [
    {
      "geometry": {
        "type": "Point",
        "coordinates": [
          89.55,
          22.8
        ]
      },
      "type": "Feature",
      "properties": {
        "hierarchy": [
          "tgn:7000190",
          "tgn:1000004",
          "tgn:1000105",
          "tgn:7029392"
        ],
        "placetype": [
          "aat:300387064",
          "aat:300387082"
        ],
        "id": 7000190,
        "name:xx": "Khulna"
      }
    },
    {
      "geometry": {
        "type": "Point",
        "coordinates": [
          88.6,
          24.3667
        ]
      },
      "type": "Feature",
      "properties": {
        "hierarchy": [
          "tgn:7000191",
          "tgn:1000004",
          "tgn:1000105",
          "tgn:7029392"
        ],
        "placetype": [
          "aat:300387064",
          "aat:300387082"
        ],
        "id": 7000191,
        "name:xx": "Rājshāhi"
      }
    },
    {
      "geometry": {
        "type": "Point",
        "coordinates": [
          77,
          20
        ]
      },
      "type": "Feature",
      "properties": {
        "name:pt": "Índia",
        "name:en": "India",
        "name:xx": "Bhārat",
        "name:hi": "भारत",
        "hierarchy": [
          "tgn:7000198",
          "tgn:1000004",
          "tgn:7029392"
        ],
        "name:ar": "ا هًيد",
        "name:de": "Indien",
        "placetype": [
          "aat:300387054",
          "aat:300179493",
          "aat:300128207",
          "aat:300387174",
          "aat:300387136"
        ],
        "name:fr": "Inde",
        "name:ru": "Индия",
        "name:zh": "印度",
        "id": 7000198,
        "name:es": "India"
      }
    }
  ]
}
