{
  "type": "FeatureCollection",
  "features": [
    {
      "geometry": {
        "type": "Point",
        "coordinates": [
          24,
          -22
        ]
      },
      "type": "Feature",
      "properties": {
        "name:en": "Botswana",
        "hierarchy": [
          "tgn:1000150",
          "tgn:7001242",
          "tgn:7029392"
        ],
        "name:ar": "بوجسوانا",
        "name:de": "Botswana",
        "placetype": [
          "aat:300387054",
          "aat:300179493",
          "aat:300128207",
          "aat:300387174",
          "aat:300235119"
        ],
        "name:fr": "Botswana",
        "name:ru": "Ботсвана",
        "name:zh": "博茨瓦纳",
        "id": 1000150,
        "name:es": "Botswana"
      }
    },
    {
      "geometry": {
        "type": "Point",
        "coordinates": [
          12,
          6
        ]
      },
      "type": "Feature",
      "properties": {
        "name:pt": "Camarão",
        "name:en": "Cameroun",
        "name:nl": "Kameroen",
        "hierarchy": [
          "tgn:1000153",
          "tgn:7001242",
          "tgn:7029392"
        ],
        "name:ar": "اكًاميرون",
        "name:de": "Kamerun",
        "placetype": [
          "aat:300387054",
          "aat:300179493",
          "aat:300128207",
          "aat:300387174",
          "aat:300235117",
          "aat:300235120"
        ],
        "name:fr": "Cameroon",
        "name:ru": "Камерун",
        "name:zh": "喀麦隆",
        "id": 1000153,
        "name:es": "Camerún"
      }
    },
    {
      "geometry": {
        "type": "Point",
        "coordinates": [
          21,
          7
        ]
      },
      "type": "Feature",
      "properties": {
        "name:en": "Ködörösêse tî Bêafrîka",
        "hierarchy": [
          "tgn:1000155",
          "tgn:7001242",
          "tgn:7029392"
        ],
        "name:ar": "جُهور ةً أفرًل اِ ا وًسطى",
        "placetype": [
          "aat:300387054",
          "aat:300179493",
          "aat:300128207",
          "aat:300387174",
          "aat:300135982"
        ],
        "name:fr": "Central African Republic",
        "name:sag": "République centrafricaine",
        "name:ru": "Центральноафриканская Республика",
        "name:zh": "中非共和国",
        "id": 1000155,
        "name:es": "República Centroafricana"
      }
    },
    {
      "geometry": {
        "type": "Point",
        "coordinates": [
          19,
          15
        ]
      },
      "type": "Feature",
      "properties": {
        "name:en": "Tchad",
        "name:xx": "Chad",
        "hierarchy": [
          "tgn:1000156",
          "tgn:7001242",
          "tgn:7029392"
        ],
        "name:ar": "جضَْاد",
        "placetype": [
          "aat:300387054",
          "aat:300235115",
          "aat:300179493",
          "aat:300128207",
          "aat:300387174",
          "aat:300387120",
          "aat:300387136"
        ],
        "name:fr": "Chad",
        "name:ru": "Чад",
        "name:zh": "乍得",
        "id": 1000156,
        "name:es": "Tchād"
      }
    },
    {
      "geometry": {
        "type": "Point",
        "coordinates": [
          44.25,
          -12.1667
        ]
      },
      "type": "Feature",
      "properties": {
        "name:en": "Komori",
        "name:xx": "Juzur al Qamar",
        "hierarchy": [
          "tgn:1000157",
          "tgn:7001242",
          "tgn:7029392"
        ],
        "name:ar": "جزر ا لًمر",
        "name:de": "Komoren",
        "placetype": [
          "aat:300387054",
          "aat:300235115",
          "aat:300128207",
          "aat:300387174",
          "aat:300135982"
        ],
        "name:fr": "Comoros",
        "name:sw": "Komori",
        "name:ru": "Коморские Острова",
        "name:zh": "科摩罗",
        "id": 1000157,
        "name:es": "Comoras"
      }
    },
    {
      "geometry": {
        "type": "Point",
        "coordinates": [
          15,
          -1
        ]
      },
      "type": "Feature",
      "properties": {
        "name:en": "Congo (Republic of)",
        "hierarchy": [
          "tgn:1000158",
          "tgn:7001242",
          "tgn:7029392"
        ],
        "name:ar": "ا ىًوهغو",
        "placetype": [
          "aat:300387054",
          "aat:300179493",
          "aat:300128207",
          "aat:300387174",
          "aat:300135982"
        ],
        "name:fr": "Congo",
        "name:ru": "Конго",
        "name:zh": "刚果",
        "id": 1000158,
        "name:es": "Congo"
      }
    },
    {
      "geometry": {
        "type": "Point",
        "coordinates": [
          25,
          -0.0167
        ]
      },
      "type": "Feature",
      "properties": {
        "name:en": "Democratic Republic of the Congo",
        "hierarchy": [
          "tgn:1000159",
          "tgn:7001242",
          "tgn:7029392"
        ],
        "name:ar": "جُهور ةً ا ىًوهغو الدّيملراط ةَ",
        "placetype": [
          "aat:300387054",
          "aat:300237188",
          "aat:300179493",
          "aat:300128207",
          "aat:300387174",
          "aat:300387136"
        ],
        "name:fr": "République démocratique du Congo",
        "name:ru": "Демократическая Республика Конго",
        "name:zh": "刚果民主共和国",
        "id": 1000159,
        "name:es": "República Democrática del Congo"
      }
    }
  ]
}
