{
  "type": "FeatureCollection",
  "features": [
    {
      "geometry": {
        "type": "Point",
        "coordinates": [
          55.6667,
          -4.5833
        ]
      },
      "type": "Feature",
      "properties": {
        "name:en": "Seychelles",
        "name:crs": "Seychelles",
        "hierarchy": [
          "tgn:1000190",
          "tgn:7001242",
          "tgn:7029392"
        ],
        "name:ar": "س ضُيَ",
        "placetype": [
          "aat:300387054",
          "aat:300235115",
          "aat:300235114",
          "aat:300387062",
          "aat:300179493",
          "aat:300128207",
          "aat:300387174",
          "aat:300387136"
        ],
        "name:fr": "Sesel",
        "name:ru": "Сейшельские Острова",
        "name:zh": "塞舌尔",
        "id": 1000190
      }
    },
    {
      "geometry": {
        "type": "Point",
        "coordinates": [
          -11.5,
          8.5
        ]
      },
      "type": "Feature",
      "properties": {
        "name:en": "Sierra Leone",
        "hierarchy": [
          "tgn:1000191",
          "tgn:7001242",
          "tgn:7029392"
        ],
        "name:ar": "سيرا وًَن",
        "placetype": [
          "aat:300387054",
          "aat:300235115",
          "aat:300179493",
          "aat:300128207",
          "aat:300387174",
          "aat:300387136",
          "aat:300235119"
        ],
        "name:fr": "Sierra Leone",
        "name:ru": "Сьерра-Леоне",
        "name:zh": "塞拉利昂",
        "id": 1000191,
        "name:es": "Sierra Leona"
      }
    },
    {
      "geometry": {
        "type": "Point",
        "coordinates": [
          48,
          6
        ]
      },
      "type": "Feature",
      "properties": {
        "name:so": "Somalia",
        "name:en": "Somalia",
        "name:xx": "Soomaaliya",
        "hierarchy": [
          "tgn:1000192",
          "tgn:7001242",
          "tgn:7029392"
        ],
        "name:ar": "اصًومال",
        "placetype": [
          "aat:300387054",
          "aat:300179493",
          "aat:300128207",
          "aat:300387174"
        ],
        "name:fr": "Somalie",
        "name:ru": "Сомали",
        "name:zh": "索马里",
        "id": 1000192,
        "name:es": "Aş Şūmāl"
      }
    },
    {
      "geometry": {
        "type": "Point",
        "coordinates": [
          26,
          -30
        ]
      },
      "type": "Feature",
      "properties": {
        "name:zu": "Ningizimu Afrika",
        "name:en": "South Africa",
        "hierarchy": [
          "tgn:1000193",
          "tgn:7001242",
          "tgn:7029392"
        ],
        "name:ts": "Afrika Dzonga",
        "name:ar": "ج وٌب أفرًل اِ",
        "placetype": [
          "aat:300387054",
          "aat:300179493",
          "aat:300128207",
          "aat:300387174"
        ],
        "name:fr": "Afrique du Sud",
        "name:nso": "Afrika-Borwa",
        "name:tn": "Aforika Borwa",
        "name:ve": "Afurika Tshipembe",
        "name:xh": "uMzantsi Afrika",
        "name:zh": "南非",
        "name:ru": "Южная Африка",
        "name:nr": "Sewula Afrika",
        "name:st": "Afrika Borwa",
        "name:ss": "Ningizimu Afrika",
        "id": 1000193,
        "name:es": "Sudáfrica",
        "name:af": "Suid-Afrika"
      }
    },
    {
      "geometry": {
        "type": "Point",
        "coordinates": [
          25.5833,
          -26
        ]
      },
      "type": "Feature",
      "properties": {
        "hierarchy": [
          "tgn:1000194",
          "tgn:7001242",
          "tgn:1000193",
          "tgn:7029392"
        ],
        "placetype": [
          "aat:300387179",
          "aat:300387130",
          "aat:300387346"
        ],
        "name:en": "Bophuthatswana",
        "id": 1000194
      }
    },
    {
      "geometry": {
        "type": "Point",
        "coordinates": [
          17,
          -22
        ]
      },
      "type": "Feature",
      "properties": {
        "name:en": "Namibia",
        "hierarchy": [
          "tgn:1000198",
          "tgn:7001242",
          "tgn:7029392"
        ],
        "name:ar": "ةًنام بِاَ",
        "placetype": [
          "aat:300387054",
          "aat:300235114",
          "aat:300128207",
          "aat:300387174",
          "aat:300387136",
          "aat:300135982"
        ],
        "name:fr": "Namibie",
        "name:ru": "Намибия",
        "name:zh": "纳米比亚",
        "id": 1000198,
        "name:es": "Namibia"
      }
    }
  ]
}
