{
  "type": "FeatureCollection",
  "features": [
    {
      "geometry": {
        "type": "Point",
        "coordinates": [
          0.266667,
          52.4
        ]
      },
      "type": "Feature",
      "properties": {
        "hierarchy": [
          "tgn:7012190",
          "tgn:7002445",
          "tgn:7011980",
          "tgn:1000003",
          "tgn:7008591",
          "tgn:7029392"
        ],
        "placetype": [
          "aat:300008347"
        ],
        "id": 7012190,
        "name:ang": "Eli"
      }
    },
    {
      "geometry": {
        "type": "Point",
        "coordinates": [
          24.0833,
          54.4167
        ]
      },
      "type": "Feature",
      "properties": {
        "name:en": "Neman",
        "name:lt": "Nemanus",
        "hierarchy": [
          "tgn:7012191",
          "tgn:1000003",
          "tgn:7029392"
        ],
        "name:de": "Memel",
        "placetype": [
          "aat:300008707"
        ],
        "name:be": "Nioman",
        "name:et": "Neemen",
        "name:pl": "Niemen",
        "id": 7012191
      }
    }
  ]
}
