{
  "type": "FeatureCollection",
  "features": [
    {
      "geometry": {
        "type": "Point",
        "coordinates": [
          -9.5,
          6.5
        ]
      },
      "type": "Feature",
      "properties": {
        "name:en": "Liberia",
        "hierarchy": [
          "tgn:1000171",
          "tgn:7001242",
          "tgn:7029392"
        ],
        "name:ar": "بًَريا",
        "placetype": [
          "aat:300387054",
          "aat:300179493",
          "aat:300128207",
          "aat:300387174"
        ],
        "name:fr": "Libéria",
        "name:ru": "Либерия",
        "name:zh": "利比里亚",
        "id": 1000171,
        "name:es": "Liberia"
      }
    },
    {
      "geometry": {
        "type": "Point",
        "coordinates": [
          17,
          25
        ]
      },
      "type": "Feature",
      "properties": {
        "name:en": "Lībiyā",
        "name:xx": "Libya",
        "hierarchy": [
          "tgn:1000172",
          "tgn:7001242",
          "tgn:7029392"
        ],
        "name:ar": "الجاهيرًة ا عًرب ةَ ا بٌََ ةِ",
        "placetype": [
          "aat:300387054",
          "aat:300179493",
          "aat:300128207",
          "aat:300387174",
          "aat:300387136",
          "aat:300235096"
        ],
        "name:fr": "Jamahiriya arabe libyenne",
        "name:ru": "Ливийская Арабская Джамахирия",
        "name:zh": "阿拉伯利比亚民众国",
        "id": 1000172,
        "name:es": "Jamahiriya Árabe Libia"
      }
    },
    {
      "geometry": {
        "type": "Point",
        "coordinates": [
          47,
          -20
        ]
      },
      "type": "Feature",
      "properties": {
        "name:en": "Madagascar",
        "hierarchy": [
          "tgn:1000173",
          "tgn:7001242",
          "tgn:7029392"
        ],
        "name:ar": "مدغضلر",
        "name:mg": "Madagascar",
        "placetype": [
          "aat:300387054",
          "aat:300235115",
          "aat:300387062",
          "aat:300179493",
          "aat:300128207",
          "aat:300387174",
          "aat:300387136",
          "aat:300235096",
          "aat:300135982"
        ],
        "name:fr": "Madagascar",
        "name:ru": "Мадагаскар",
        "name:zh": "马达加斯加",
        "id": 1000173,
        "name:es": "Madagasikara"
      }
    },
    {
      "geometry": {
        "type": "Point",
        "coordinates": [
          -4,
          17
        ]
      },
      "type": "Feature",
      "properties": {
        "name:en": "Mali",
        "hierarchy": [
          "tgn:1000175",
          "tgn:7001242",
          "tgn:7029392"
        ],
        "name:ar": "مالي",
        "placetype": [
          "aat:300387054",
          "aat:300235115",
          "aat:300179493",
          "aat:300128207",
          "aat:300387174",
          "aat:300387136",
          "aat:300135982"
        ],
        "name:fr": "Mali",
        "name:ru": "Мали",
        "name:zh": "马里",
        "id": 1000175,
        "name:es": "Malí"
      }
    },
    {
      "geometry": {
        "type": "Point",
        "coordinates": [
          -12,
          20
        ]
      },
      "type": "Feature",
      "properties": {
        "name:en": "Mauritania",
        "name:xx": "Mauritania",
        "hierarchy": [
          "tgn:1000176",
          "tgn:7001242",
          "tgn:7029392"
        ],
        "name:ar": "مور خًاه اَ",
        "placetype": [
          "aat:300387054",
          "aat:300235115",
          "aat:300179493",
          "aat:300128207",
          "aat:300387174",
          "aat:300387136",
          "aat:300135982"
        ],
        "name:fr": "Mūrītānīyā",
        "name:ru": "Мавритания",
        "name:zh": "毛里塔尼亚",
        "id": 1000176,
        "name:es": "Mauritanie"
      }
    },
    {
      "geometry": {
        "type": "Point",
        "coordinates": [
          57.5833,
          -20.3
        ]
      },
      "type": "Feature",
      "properties": {
        "name:en": "Mauritius",
        "hierarchy": [
          "tgn:1000177",
          "tgn:7001242",
          "tgn:7029392"
        ],
        "name:ar": "مور ضٌ وَس",
        "placetype": [
          "aat:300387054",
          "aat:300128207",
          "aat:300387174",
          "aat:300387136"
        ],
        "name:fr": "Maurice",
        "name:ru": "Маврикий",
        "name:zh": "毛里求斯",
        "id": 1000177,
        "name:es": "Mauricio"
      }
    },
    {
      "geometry": {
        "type": "Point",
        "coordinates": [
          -5,
          32
        ]
      },
      "type": "Feature",
      "properties": {
        "name:pt": "Marrocos",
        "name:en": "Maroc",
        "name:xx": "Morocco",
        "hierarchy": [
          "tgn:1000179",
          "tgn:7001242",
          "tgn:7029392"
        ],
        "name:de": "Marokko",
        "placetype": [
          "aat:300387054",
          "aat:300128207",
          "aat:300387174",
          "aat:300235096"
        ],
        "name:fr": "Al Maghrib",
        "id": 1000179,
        "name:es": "Marruecos"
      }
    }
  ]
}
