{
  "type": "FeatureCollection",
  "features": [
    {
      "geometry": {
        "type": "Point",
        "coordinates": [
          5.75,
          52.5
        ]
      },
      "type": "Feature",
      "properties": {
        "name:pt": "Países Baixos",
        "name:en": "Nederland",
        "name:nl": "Países Bajos",
        "hierarchy": [
          "tgn:7016845",
          "tgn:1000003",
          "tgn:7029392"
        ],
        "name:ar": "هويًدا",
        "name:de": "Netherlands",
        "placetype": [
          "aat:300387054",
          "aat:300128207",
          "aat:300387053",
          "aat:300387174",
          "aat:300387189",
          "aat:300235096"
        ],
        "name:fr": "Niederlande",
        "name:it": "Paesi Bassi",
        "name:ru": "Нидерланды",
        "name:zh": "荷兰",
        "id": 7016845,
        "name:es": "Pays-Bas"
      }
    },
    {
      "geometry": {
        "type": "Point",
        "coordinates": [
          39.2167,
          -4.6667
        ]
      },
      "type": "Feature",
      "properties": {
        "hierarchy": [
          "tgn:7016846",
          "tgn:7001242",
          "tgn:7593775",
          "tgn:1000169",
          "tgn:7029392"
        ],
        "placetype": [
          "aat:300008347"
        ],
        "id": 7016846,
        "name:xx": "Vanga"
      }
    },
    {
      "geometry": {
        "type": "Point",
        "coordinates": [
          83.3,
          17.7
        ]
      },
      "type": "Feature",
      "properties": {
        "hierarchy": [
          "tgn:7016847",
          "tgn:1001828",
          "tgn:1000004",
          "tgn:7000198",
          "tgn:7029392"
        ],
        "placetype": [
          "aat:300008347",
          "aat:300387264",
          "aat:300008389",
          "aat:300264742",
          "aat:300120599",
          "aat:300387288"
        ],
        "name:en": "Vishākhapatnam",
        "id": 7016847
      }
    },
    {
      "geometry": {
        "type": "Point",
        "coordinates": [
          21.9833,
          12.8167
        ]
      },
      "type": "Feature",
      "properties": {
        "hierarchy": [
          "tgn:7016848",
          "tgn:7001242",
          "tgn:1000156",
          "tgn:7029392"
        ],
        "placetype": [
          "aat:300387064",
          "aat:300235099"
        ],
        "id": 7016848,
        "name:xx": "Ouaddaï"
      }
    },
    {
      "geometry": {
        "type": "Point",
        "coordinates": [
          35.25,
          31.6667
        ]
      },
      "type": "Feature",
      "properties": {
        "name:en": "Ha-gadah Ha-ma'aravit",
        "name:xx": "West Bank",
        "hierarchy": [
          "tgn:7016849",
          "tgn:1000004",
          "tgn:1000119",
          "tgn:7029392"
        ],
        "name:de": "Westjordanland",
        "placetype": [
          "aat:300387054",
          "aat:300387064",
          "aat:300387139"
        ],
        "id": 7016849
      }
    }
  ]
}
